{
    "links": {
        "self": "http://www.neowsapp.com/rest/v1/neo/3471588?api_key=iIulBulltgU6a56xZRHN4H3l9WmuAYTsLGpBGhQ2"
    },
    "id": "3471588",
    "neo_reference_id": "3471588",
    "name": "(2009 UF)",
    "designation": "2009 UF",
    "nasa_jpl_url": "http://ssd.jpl.nasa.gov/sbdb.cgi?sstr=3471588",
    "absolute_magnitude_h": 22.6,
    "estimated_diameter": {
        "kilometers": {
            "estimated_diameter_min": 0.0802703167,
            "estimated_diameter_max": 0.1794898848
        },
        "meters": {
            "estimated_diameter_min": 80.2703167283,
            "estimated_diameter_max": 179.4898847799
        },
        "miles": {
            "estimated_diameter_min": 0.049877647,
            "estimated_diameter_max": 0.1115298092
        },
        "feet": {
            "estimated_diameter_min": 263.3540659348,
            "estimated_diameter_max": 588.8775935812
        }
    },
    "is_potentially_hazardous_asteroid": false,
    "close_approach_data": [
        {
            "close_approach_date": "2009-10-10",
            "close_approach_date_full": "2009-Oct-10 07:42",
            "epoch_date_close_approach": 1255160520000,
            "relative_velocity": {
                "kilometers_per_second": "17.7173431208",
                "kilometers_per_hour": "63782.4352349851",
                "miles_per_hour": "39631.9248269828"
            },
            "miss_distance": {
                "astronomical": "0.101748168",
                "lunar": "39.580037352",
                "kilometers": "15221309.20920216",
                "miles": "9458082.965463408"
            },
            "orbiting_body": "Earth"
        }
    ],
    "orbital_data": {
        "orbit_id": "13",
        "orbit_determination_date": "2017-04-06 08:59:34",
        "first_observation_date": "2009-10-16",
        "last_observation_date": "2009-10-26",
        "data_arc_in_days": 10,
        "observations_used": 29,
        "orbit_uncertainty": "8",
        "minimum_orbit_intersection": ".0998295",
        "jupiter_tisserand_invariant": "3.887",
        "epoch_osculation": "2455123.5",
        "eccentricity": ".4240965702228461",
        "semi_major_axis": "1.753888111893539",
        "inclination": "28.9014251602241",
        "ascending_node_longitude": "20.7375284976661",
        "orbital_period": "848.4011596289101",
        "perihelion_distance": "1.010070179084866",
        "perihelion_argument": "314.3040374210051",
        "aphelion_distance": "2.497706044702213",
        "perihelion_time": "2455078.229650123820",
        "mean_anomaly": "19.20945742525061",
        "mean_motion": ".4243275671116051",
        "equinox": "J2000",
        "orbit_class": {
            "orbit_class_type": "APO",
            "orbit_class_description": "Near-Earth asteroid orbits which cross the Earth’s orbit similar to that of 1862 Apollo",
            "orbit_class_range": "a (semi-major axis) > 1.0 AU; q (perihelion) < 1.017 AU"
        }
    },
    "is_sentry_object": false
}